{
  "norad_id": 45060,
  "name": "STARLINK-1166",
  "history": [
    {
      "epoch": "2026-03-28T21:29:42.726624Z",
      "apogee_km": 422.99379403583316,
      "perigee_km": 420.5227121008693,
      "latitude_deg": 2.1743996526712754e-05,
      "longitude_deg": 32.2319761684291,
      "height_km": 422.16700622586495,
      "semi_major_axis_km": 6799.895253068351,
      "eccentricity": 0.0001817,
      "inclination_deg": 53.0501,
      "raan_deg": 180.9695,
      "arg_perigee_deg": 293.2586,
      "mean_anomaly_deg": 66.823,
      "mean_motion_rev_day": 15.48279729
    },
    {
      "epoch": "2026-03-29T05:14:28.164192Z",
      "apogee_km": 422.8611440410805,
      "perigee_km": 420.31668660356627,
      "latitude_deg": 1.6561356524961598e-05,
      "longitude_deg": -85.81986590102957,
      "height_km": 421.8874023984998,
      "semi_major_axis_km": 6799.725915322323,
      "eccentricity": 0.0001871,
      "inclination_deg": 53.05,
      "raan_deg": 179.4251,
      "arg_perigee_deg": 298.0449,
      "mean_anomaly_deg": 62.0369,
      "mean_motion_rev_day": 15.48337566
    },
    {
      "epoch": "2026-03-30T04:28:39.457056Z",
      "apogee_km": 422.5144506419356,
      "perigee_km": 419.76890191245457,
      "latitude_deg": -4.889468257615763e-05,
      "longitude_deg": -79.95555577243564,
      "height_km": 421.2589053713813,
      "semi_major_axis_km": 6799.278676277195,
      "eccentricity": 0.0002019,
      "inclination_deg": 53.0503,
      "raan_deg": 174.7908,
      "arg_perigee_deg": 304.6002,
      "mean_anomaly_deg": 55.4814,
      "mean_motion_rev_day": 15.48490337
    },
    {
      "epoch": "2026-03-30T06:01:35.815008Z",
      "apogee_km": 422.4773798001888,
      "perigee_km": 419.7168907412697,
      "latitude_deg": 3.139254160853921e-06,
      "longitude_deg": -103.56305626685423,
      "height_km": 421.198294395455,
      "semi_major_axis_km": 6799.234135270729,
      "eccentricity": 0.000203,
      "inclination_deg": 53.0502,
      "raan_deg": 174.4817,
      "arg_perigee_deg": 305.1982,
      "mean_anomaly_deg": 54.8835,
      "mean_motion_rev_day": 15.48505553
    },
    {
      "epoch": "2026-03-30T13:46:16.842720Z",
      "apogee_km": 422.28901523161585,
      "perigee_km": 419.4954301046055,
      "latitude_deg": 3.948579452095316e-05,
      "longitude_deg": 138.40225773692111,
      "height_km": 420.9607733837854,
      "semi_major_axis_km": 6799.02922266811,
      "eccentricity": 0.00020544,
      "inclination_deg": 53.0504,
      "raan_deg": 172.936,
      "arg_perigee_deg": 306.3668,
      "mean_anomaly_deg": 53.715,
      "mean_motion_rev_day": 15.48575558
    },
    {
      "epoch": "2026-03-30T21:30:56.680704Z",
      "apogee_km": 422.118239158096,
      "perigee_km": 419.25810938378436,
      "latitude_deg": -4.7007817678146254e-05,
      "longitude_deg": 20.373650630516785,
      "height_km": 420.65773281763484,
      "semi_major_axis_km": 6798.82517427094,
      "eccentricity": 0.00021034,
      "inclination_deg": 53.0506,
      "raan_deg": 171.3915,
      "arg_perigee_deg": 310.4199,
      "mean_anomaly_deg": 49.6624,
      "mean_motion_rev_day": 15.48645273
    },
    {
      "epoch": "2026-03-31T16:06:03.288096Z",
      "apogee_km": 421.68914207040416,
      "perigee_km": 418.730501533556,
      "latitude_deg": -4.605483304403146e-05,
      "longitude_deg": 97.1234558469433,
      "height_km": 420.0273774928646,
      "semi_major_axis_km": 6798.34682180198,
      "eccentricity": 0.0002176,
      "inclination_deg": 53.0506,
      "raan_deg": 167.6821,
      "arg_perigee_deg": 316.8459,
      "mean_anomaly_deg": 43.2377,
      "mean_motion_rev_day": 15.48808727
    },
    {
      "epoch": "2026-04-01T16:52:41.924928Z",
      "apogee_km": 421.19296899807614,
      "perigee_km": 418.04153012797906,
      "latitude_deg": 3.383361930886787e-05,
      "longitude_deg": 79.49935850774598,
      "height_km": 419.22815854007433,
      "semi_major_axis_km": 6797.754249563028,
      "eccentricity": 0.0002318,
      "inclination_deg": 53.0499,
      "raan_deg": 162.7365,
      "arg_perigee_deg": 324.6799,
      "mean_anomaly_deg": 35.4055,
      "mean_motion_rev_day": 15.4901125
    },
    {
      "epoch": "2026-04-02T16:06:15.005664Z",
      "apogee_km": 420.765932678054,
      "perigee_km": 417.46382771465414,
      "latitude_deg": -1.2607939262541604e-05,
      "longitude_deg": 85.52023620127923,
      "height_km": 418.5844347933726,
      "semi_major_axis_km": 6797.251880196354,
      "eccentricity": 0.0002429,
      "inclination_deg": 53.0493,
      "raan_deg": 158.0991,
      "arg_perigee_deg": 329.7975,
      "mean_anomaly_deg": 30.2892,
      "mean_motion_rev_day": 15.49182979
    },
    {
      "epoch": "2026-04-02T16:06:15.006528Z",
      "apogee_km": 420.76579673301694,
      "perigee_km": 417.46396365969304,
      "latitude_deg": -1.3537488255019067e-05,
      "longitude_deg": 85.52023189610554,
      "height_km": 418.5845522821449,
      "semi_major_axis_km": 6797.251880196354,
      "eccentricity": 0.00024288,
      "inclination_deg": 53.0493,
      "raan_deg": 158.0991,
      "arg_perigee_deg": 329.7975,
      "mean_anomaly_deg": 30.2892,
      "mean_motion_rev_day": 15.49182979
    }
  ]
}